{
    "links": {
        "self": "http://www.neowsapp.com/rest/v1/neo/3586026?api_key=iIulBulltgU6a56xZRHN4H3l9WmuAYTsLGpBGhQ2"
    },
    "id": "3586026",
    "neo_reference_id": "3586026",
    "name": "(2011 VT5)",
    "designation": "2011 VT5",
    "nasa_jpl_url": "http://ssd.jpl.nasa.gov/sbdb.cgi?sstr=3586026",
    "absolute_magnitude_h": 25.5,
    "estimated_diameter": {
        "kilometers": {
            "estimated_diameter_min": 0.0211132445,
            "estimated_diameter_max": 0.0472106499
        },
        "meters": {
            "estimated_diameter_min": 21.113244479,
            "estimated_diameter_max": 47.2106498806
        },
        "miles": {
            "estimated_diameter_min": 0.0131191578,
            "estimated_diameter_max": 0.0293353287
        },
        "feet": {
            "estimated_diameter_min": 69.2691770164,
            "estimated_diameter_max": 154.8905885541
        }
    },
    "is_potentially_hazardous_asteroid": false,
    "close_approach_data": [
        {
            "close_approach_date": "2011-10-28",
            "close_approach_date_full": "2011-Oct-28 11:57",
            "epoch_date_close_approach": 1319803020000,
            "relative_velocity": {
                "kilometers_per_second": "18.0125971562",
                "kilometers_per_hour": "64845.3497621612",
                "miles_per_hour": "40292.3785786051"
            },
            "miss_distance": {
                "astronomical": "0.0162005349",
                "lunar": "6.3020080761",
                "kilometers": "2423565.513900663",
                "miles": "1505933.7792606294"
            },
            "orbiting_body": "Earth"
        }
    ],
    "orbital_data": {
        "orbit_id": "4",
        "orbit_determination_date": "2017-04-06 08:52:04",
        "first_observation_date": "2011-11-03",
        "last_observation_date": "2011-11-05",
        "data_arc_in_days": 2,
        "observations_used": 11,
        "orbit_uncertainty": "9",
        "minimum_orbit_intersection": ".0125856",
        "jupiter_tisserand_invariant": "4.000",
        "epoch_osculation": "2455869.5",
        "eccentricity": ".6136738922047011",
        "semi_major_axis": "1.676344434654692",
        "inclination": "1.733782445100022",
        "ascending_node_longitude": "10.49251923855294",
        "orbital_period": "792.7628901772623",
        "perihelion_distance": ".6476156207644579",
        "perihelion_argument": "299.5994074862198",
        "aphelion_distance": "2.705073248544926",
        "perihelion_time": "2455814.394023094844",
        "mean_anomaly": "25.02406700876265",
        "mean_motion": ".4541080371704884",
        "equinox": "J2000",
        "orbit_class": {
            "orbit_class_type": "APO",
            "orbit_class_description": "Near-Earth asteroid orbits which cross the Earth’s orbit similar to that of 1862 Apollo",
            "orbit_class_range": "a (semi-major axis) > 1.0 AU; q (perihelion) < 1.017 AU"
        }
    },
    "is_sentry_object": false
}